IRIDIUM 116             
1 43072U 17083C   24114.87730554  .00000030  00000+0  35693-5 0  9999
2 43072  86.3912 289.7826 0001959  90.1005 270.0415 14.34216877331759
IRIDIUM 130             
1 43073U 17083D   24114.91536204  .00000311  00000+0  10401-3 0  9991
2 43073  86.3921 289.9664 0002205  87.5967 272.5481 14.34223141331701
IRIDIUM 134             
1 43075U 17083F   24114.57920209  .00000742  00000+0  25794-3 0  9996
2 43075  86.3913 289.9450 0002356 102.1773 257.9687 14.34219438331645
IRIDIUM 137             
1 43076U 17083G   24114.94072940  .00000273  00000+0  90353-4 0  9991
2 43076  86.3918 289.8709 0001843 102.5660 257.5742 14.34222825331761
IRIDIUM 141             
1 43077U 17083H   24114.93438917 -.00000025  00000+0 -16061-4 0  9992
2 43077  86.3911 289.7484 0002135  94.0609 266.0831 14.34217036331769
IRIDIUM 153             
1 43078U 17083J   24114.88656131  .00000517  00000+0  17766-3 0  9993
2 43078  86.3945 258.2017 0002577  93.1529 266.9961 14.34218139332861
IRIDIUM 131             
1 43079U 17083K   24114.92170325  .00000318  00000+0  10661-3 0  9991
2 43079  86.3918 289.8879 0002088  95.6145 264.5289 14.34223266331690
